CCSDS_OMM_VERS = 2.0
CREATION_DATE  = 
ORIGINATOR     = 

OBJECT_NAME    = STARLINK-35915
OBJECT_ID      = 2025-265F
CENTER_NAME    = EARTH
REF_FRAME      = TEME
TIME_SYSTEM    = UTC
MEAN_ELEMENT_THEORY = SGP/SGP4

EPOCH          = 2025-12-01T06:00:02.000160
MEAN_MOTION    = 15.76827851
ECCENTRICITY   = .00014696
INCLINATION    = 42.9998
RA_OF_ASC_NODE = 122.4633
ARG_OF_PERICENTER = 270.9035
MEAN_ANOMALY   = 303.7842

EPHEMERIS_TYPE = 0
CLASSIFICATION_TYPE = U
NORAD_CAT_ID   = 66521
ELEMENT_SET_NO = 999
REV_AT_EPOCH   = 314
BSTAR          = -.88550818E-2
MEAN_MOTION_DOT = -.1316861E-1
MEAN_MOTION_DDOT = 0

CCSDS_OMM_VERS = 2.0
CREATION_DATE  = 
ORIGINATOR     = 

OBJECT_NAME    = STARLINK-35946
OBJECT_ID      = 2025-265G
CENTER_NAME    = EARTH
REF_FRAME      = TEME
TIME_SYSTEM    = UTC
MEAN_ELEMENT_THEORY = SGP/SGP4

EPOCH          = 2025-12-01T06:00:02.000160
MEAN_MOTION    = 15.76800567
ECCENTRICITY   = .00014567
INCLINATION    = 42.9997
RA_OF_ASC_NODE = 122.4585
ARG_OF_PERICENTER = 270.7679
MEAN_ANOMALY   = 305.9970

EPHEMERIS_TYPE = 0
CLASSIFICATION_TYPE = U
NORAD_CAT_ID   = 66522
ELEMENT_SET_NO = 999
REV_AT_EPOCH   = 314
BSTAR          = -.97470032E-2
MEAN_MOTION_DOT = -.1432723E-1
MEAN_MOTION_DDOT = 0

CCSDS_OMM_VERS = 2.0
CREATION_DATE  = 
ORIGINATOR     = 

OBJECT_NAME    = STARLINK-35969
OBJECT_ID      = 2025-265H
CENTER_NAME    = EARTH
REF_FRAME      = TEME
TIME_SYSTEM    = UTC
MEAN_ELEMENT_THEORY = SGP/SGP4

EPOCH          = 2025-12-01T06:00:02.000160
MEAN_MOTION    = 15.76747038
ECCENTRICITY   = .00014146
INCLINATION    = 42.9997
RA_OF_ASC_NODE = 122.4532
ARG_OF_PERICENTER = 270.1445
MEAN_ANOMALY   = 308.6605

EPHEMERIS_TYPE = 0
CLASSIFICATION_TYPE = U
NORAD_CAT_ID   = 66523
ELEMENT_SET_NO = 999
REV_AT_EPOCH   = 314
BSTAR          = -.98819579E-2
MEAN_MOTION_DOT = -.1447141E-1
MEAN_MOTION_DDOT = 0

CCSDS_OMM_VERS = 2.0
CREATION_DATE  = 
ORIGINATOR     = 

OBJECT_NAME    = STARLINK-35687
OBJECT_ID      = 2025-265J
CENTER_NAME    = EARTH
REF_FRAME      = TEME
TIME_SYSTEM    = UTC
MEAN_ELEMENT_THEORY = SGP/SGP4

EPOCH          = 2025-12-01T06:00:02.000160
MEAN_MOTION    = 15.76694287
ECCENTRICITY   = .00015126
INCLINATION    = 42.9996
RA_OF_ASC_NODE = 122.4476
ARG_OF_PERICENTER = 269.5356
MEAN_ANOMALY   = 311.3174

EPHEMERIS_TYPE = 0
CLASSIFICATION_TYPE = U
NORAD_CAT_ID   = 66524
ELEMENT_SET_NO = 999
REV_AT_EPOCH   = 314
BSTAR          = -.10173328E-1
MEAN_MOTION_DOT = -.1481664E-1
MEAN_MOTION_DDOT = 0

CCSDS_OMM_VERS = 2.0
CREATION_DATE  = 
ORIGINATOR     = 

OBJECT_NAME    = STARLINK-35975
OBJECT_ID      = 2025-265K
CENTER_NAME    = EARTH
REF_FRAME      = TEME
TIME_SYSTEM    = UTC
MEAN_ELEMENT_THEORY = SGP/SGP4

EPOCH          = 2025-12-01T06:00:02.000160
MEAN_MOTION    = 15.76651347
ECCENTRICITY   = .00014583
INCLINATION    = 42.9995
RA_OF_ASC_NODE = 122.4431
ARG_OF_PERICENTER = 264.0785
MEAN_ANOMALY   = 318.7636

EPHEMERIS_TYPE = 0
CLASSIFICATION_TYPE = U
NORAD_CAT_ID   = 66525
ELEMENT_SET_NO = 999
REV_AT_EPOCH   = 314
BSTAR          = -.99010929E-2
MEAN_MOTION_DOT = -.1444155E-1
MEAN_MOTION_DDOT = 0

CCSDS_OMM_VERS = 2.0
CREATION_DATE  = 
ORIGINATOR     = 

OBJECT_NAME    = STARLINK-35932
OBJECT_ID      = 2025-265L
CENTER_NAME    = EARTH
REF_FRAME      = TEME
TIME_SYSTEM    = UTC
MEAN_ELEMENT_THEORY = SGP/SGP4

EPOCH          = 2025-12-01T06:00:02.000160
MEAN_MOTION    = 15.76582344
ECCENTRICITY   = .0001255
INCLINATION    = 42.9998
RA_OF_ASC_NODE = 122.4381
ARG_OF_PERICENTER = 269.4258
MEAN_ANOMALY   = 315.4556

EPHEMERIS_TYPE = 0
CLASSIFICATION_TYPE = U
NORAD_CAT_ID   = 66526
ELEMENT_SET_NO = 999
REV_AT_EPOCH   = 303
BSTAR          = -.10075926E-1
MEAN_MOTION_DOT = -.146251E-1
MEAN_MOTION_DDOT = 0

CCSDS_OMM_VERS = 2.0
CREATION_DATE  = 
ORIGINATOR     = 

OBJECT_NAME    = STARLINK-35935
OBJECT_ID      = 2025-265M
CENTER_NAME    = EARTH
REF_FRAME      = TEME
TIME_SYSTEM    = UTC
MEAN_ELEMENT_THEORY = SGP/SGP4

EPOCH          = 2025-12-01T06:00:02.000160
MEAN_MOTION    = 15.76526074
ECCENTRICITY   = .00015425
INCLINATION    = 42.9998
RA_OF_ASC_NODE = 122.4331
ARG_OF_PERICENTER = 265.4103
MEAN_ANOMALY   = 321.5057

EPHEMERIS_TYPE = 0
CLASSIFICATION_TYPE = U
NORAD_CAT_ID   = 66527
ELEMENT_SET_NO = 999
REV_AT_EPOCH   = 314
BSTAR          = -.10405201E-1
MEAN_MOTION_DOT = -.1501337E-1
MEAN_MOTION_DDOT = 0

CCSDS_OMM_VERS = 2.0
CREATION_DATE  = 
ORIGINATOR     = 

OBJECT_NAME    = STARLINK-35928
OBJECT_ID      = 2025-265N
CENTER_NAME    = EARTH
REF_FRAME      = TEME
TIME_SYSTEM    = UTC
MEAN_ELEMENT_THEORY = SGP/SGP4

EPOCH          = 2025-12-01T06:00:02.000160
MEAN_MOTION    = 15.76450448
ECCENTRICITY   = .00014667
INCLINATION    = 42.9998
RA_OF_ASC_NODE = 122.4277
ARG_OF_PERICENTER = 269.6813
MEAN_ANOMALY   = 319.2600

EPHEMERIS_TYPE = 0
CLASSIFICATION_TYPE = U
NORAD_CAT_ID   = 66528
ELEMENT_SET_NO = 999
REV_AT_EPOCH   = 314
BSTAR          = -.10276076E-1
MEAN_MOTION_DOT = -.1480481E-1
MEAN_MOTION_DDOT = 0

CCSDS_OMM_VERS = 2.0
CREATION_DATE  = 
ORIGINATOR     = 

OBJECT_NAME    = STARLINK-35933
OBJECT_ID      = 2025-265P
CENTER_NAME    = EARTH
REF_FRAME      = TEME
TIME_SYSTEM    = UTC
MEAN_ELEMENT_THEORY = SGP/SGP4

EPOCH          = 2025-12-01T06:00:02.000160
MEAN_MOTION    = 15.76354381
ECCENTRICITY   = .00014302
INCLINATION    = 42.9998
RA_OF_ASC_NODE = 122.4227
ARG_OF_PERICENTER = 276.5032
MEAN_ANOMALY   = 314.4804

EPHEMERIS_TYPE = 0
CLASSIFICATION_TYPE = U
NORAD_CAT_ID   = 66529
ELEMENT_SET_NO = 999
REV_AT_EPOCH   = 314
BSTAR          = -.1005548E-1
MEAN_MOTION_DOT = -.1446909E-1
MEAN_MOTION_DDOT = 0

CCSDS_OMM_VERS = 2.0
CREATION_DATE  = 
ORIGINATOR     = 

OBJECT_NAME    = STARLINK-35961
OBJECT_ID      = 2025-265Q
CENTER_NAME    = EARTH
REF_FRAME      = TEME
TIME_SYSTEM    = UTC
MEAN_ELEMENT_THEORY = SGP/SGP4

EPOCH          = 2025-12-01T06:00:02.000160
MEAN_MOTION    = 15.76320110
ECCENTRICITY   = .00013921
INCLINATION    = 42.9997
RA_OF_ASC_NODE = 122.4178
ARG_OF_PERICENTER = 270.1101
MEAN_ANOMALY   = 322.8298

EPHEMERIS_TYPE = 0
CLASSIFICATION_TYPE = U
NORAD_CAT_ID   = 66530
ELEMENT_SET_NO = 999
REV_AT_EPOCH   = 314
BSTAR          = -.99337959E-2
MEAN_MOTION_DOT = -.1429459E-1
MEAN_MOTION_DDOT = 0

CCSDS_OMM_VERS = 2.0
CREATION_DATE  = 
ORIGINATOR     = 

OBJECT_NAME    = STARLINK-35960
OBJECT_ID      = 2025-265R
CENTER_NAME    = EARTH
REF_FRAME      = TEME
TIME_SYSTEM    = UTC
MEAN_ELEMENT_THEORY = SGP/SGP4

EPOCH          = 2025-12-01T06:00:02.000160
MEAN_MOTION    = 15.76271120
ECCENTRICITY   = .00013146
INCLINATION    = 42.9998
RA_OF_ASC_NODE = 122.4125
ARG_OF_PERICENTER = 251.4958
MEAN_ANOMALY   = 343.4154

EPHEMERIS_TYPE = 0
CLASSIFICATION_TYPE = U
NORAD_CAT_ID   = 66531
ELEMENT_SET_NO = 999
REV_AT_EPOCH   = 314
BSTAR          = -.97444772E-2
MEAN_MOTION_DOT = -.1402526E-1
MEAN_MOTION_DDOT = 0

CCSDS_OMM_VERS = 2.0
CREATION_DATE  = 
ORIGINATOR     = 

OBJECT_NAME    = STARLINK-35914
OBJECT_ID      = 2025-265S
CENTER_NAME    = EARTH
REF_FRAME      = TEME
TIME_SYSTEM    = UTC
MEAN_ELEMENT_THEORY = SGP/SGP4

EPOCH          = 2025-12-01T06:00:02.000160
MEAN_MOTION    = 15.76229553
ECCENTRICITY   = .00014375
INCLINATION    = 42.9997
RA_OF_ASC_NODE = 122.4079
ARG_OF_PERICENTER = 264.1208
MEAN_ANOMALY   = 332.7845

EPHEMERIS_TYPE = 0
CLASSIFICATION_TYPE = U
NORAD_CAT_ID   = 66532
ELEMENT_SET_NO = 999
REV_AT_EPOCH   = 314
BSTAR          = -.1002893E-1
MEAN_MOTION_DOT = -.1436438E-1
MEAN_MOTION_DDOT = 0

