STARLINK-35915          
1 66521U 25265F   25335.25002315 -.01316861  00000+0 -88551-2 0  9992
2 66521  42.9998 122.4633 0001469 270.9035 303.7842 15.76827851  3145
STARLINK-35946          
1 66522U 25265G   25335.25002315 -.01432723  00000+0 -97470-2 0  9999
2 66522  42.9997 122.4585 0001456 270.7679 305.9970 15.76800567  3140
STARLINK-35969          
1 66523U 25265H   25335.25002315 -.01447141  00000+0 -98820-2 0  9990
2 66523  42.9997 122.4532 0001414 270.1445 308.6605 15.76747038  3140
STARLINK-35687          
1 66524U 25265J   25335.25002315 -.01481664  00000+0 -10173-1 0  9993
2 66524  42.9996 122.4476 0001512 269.5356 311.3174 15.76694287  3148
STARLINK-35975          
1 66525U 25265K   25335.25002315 -.01444155  00000+0 -99011-2 0  9997
2 66525  42.9995 122.4431 0001458 264.0785 318.7636 15.76651347  3148
STARLINK-35932          
1 66526U 25265L   25335.25002315 -.01462510  00000+0 -10076-1 0  9996
2 66526  42.9998 122.4381 0001255 269.4258 315.4556 15.76582344  3038
STARLINK-35935          
1 66527U 25265M   25335.25002315 -.01501337  00000+0 -10405-1 0  9994
2 66527  42.9998 122.4331 0001542 265.4103 321.5057 15.76526074  3142
STARLINK-35928          
1 66528U 25265N   25335.25002315 -.01480481  00000+0 -10276-1 0  9997
2 66528  42.9998 122.4277 0001466 269.6813 319.2600 15.76450448  3140
STARLINK-35933          
1 66529U 25265P   25335.25002315 -.01446909  00000+0 -10055-1 0  9990
2 66529  42.9998 122.4227 0001430 276.5032 314.4804 15.76354381  3149
STARLINK-35961          
1 66530U 25265Q   25335.25002315 -.01429459  00000+0 -99338-2 0  9995
2 66530  42.9997 122.4178 0001392 270.1101 322.8298 15.76320110  3142
STARLINK-35960          
1 66531U 25265R   25335.25002315 -.01402526  00000+0 -97445-2 0  9999
2 66531  42.9998 122.4125 0001314 251.4958 343.4154 15.76271120  3148
STARLINK-35914          
1 66532U 25265S   25335.25002315 -.01436438  00000+0 -10029-1 0  9991
2 66532  42.9997 122.4079 0001437 264.1208 332.7845 15.76229553  3142
